[{"OBJECT_NAME":"SCS-01 M","OBJECT_ID":"2025-100M","EPOCH":"2026-03-09T23:50:15.541152","MEAN_MOTION":15.31880861,"ECCENTRICITY":0.00078021,"INCLINATION":97.3725,"RA_OF_ASC_NODE":145.6908,"ARG_OF_PERICENTER":292.3826,"MEAN_ANOMALY":67.6588,"EPHEMERIS_TYPE":0,"CLASSIFICATION_TYPE":"U","NORAD_CAT_ID":63993,"ELEMENT_SET_NO":999,"REV_AT_EPOCH":4565,"BSTAR":0.0012010051,"MEAN_MOTION_DOT":0.00037061,"MEAN_MOTION_DDOT":0},{"OBJECT_NAME":"STARLINK-34895","OBJECT_ID":"2025-189AC","EPOCH":"2026-03-09T16:04:11.121888","MEAN_MOTION":15.30236819,"ECCENTRICITY":0.00012674,"INCLINATION":53.1576,"RA_OF_ASC_NODE":206.838,"ARG_OF_PERICENTER":53.2836,"MEAN_ANOMALY":306.8281,"EPHEMERIS_TYPE":0,"CLASSIFICATION_TYPE":"U","NORAD_CAT_ID":65349,"ELEMENT_SET_NO":999,"REV_AT_EPOCH":3106,"BSTAR":0.00099741639,"MEAN_MOTION_DOT":0.00029332,"MEAN_MOTION_DDOT":0}]
